{
  "type": "FeatureCollection",
  "features": [
    {
      "type": "Feature",
      "properties": {
        "norad_id": 24876,
        "name": "GPS BIIR-2  (PRN 13)",
        "group": "gps-ops",
        "lat": -39.97004932481645,
        "lon": -39.19595673564348,
        "alt_km": 20441.89484418214,
        "timestamp": "2025-12-03T13:52:09.820233+00:00",
        "meta_object_name": "GPS BIIR-2  (PRN 13)",
        "meta_object_id": "1997-035A",
        "meta_epoch": "2025-12-02T18:15:55.288512",
        "meta_mean_motion": 2.00563455,
        "meta_eccentricity": 0.00966749,
        "meta_inclination": 55.8903,
        "meta_ra_of_asc_node": 106.2592,
        "meta_arg_of_pericenter": 57.0161,
        "meta_mean_anomaly": 303.8791,
        "meta_ephemeris_type": 0,
        "meta_classification_type": "U",
        "meta_norad_cat_id": 24876,
        "meta_element_set_no": 999,
        "meta_rev_at_epoch": 20801,
        "meta_bstar": 0,
        "meta_mean_motion_dot": 2.2e-07,
        "meta_mean_motion_ddot": 0,
        "tle_line1": "1 24876U 97035A   25336.76105658  .00000022  00000+0  00000+0 0  9990",
        "tle_line2": "2 24876  55.8903 106.2592 0096674  57.0161 303.8791  2.00563455208018"
      },
      "geometry": {
        "type": "Point",
        "coordinates": [
          -39.19595673564348,
          -39.97004932481645
        ]
      }
    },
    {
      "type": "Feature",
      "properties": {
        "norad_id": 26360,
        "name": "GPS BIIR-4  (PRN 20)",
        "group": "gps-ops",
        "lat": -29.64411676519547,
        "lon": 3.7858308548452038,
        "alt_km": 20170.63898194855,
        "timestamp": "2025-12-03T13:52:09.820261+00:00",
        "meta_object_name": "GPS BIIR-4  (PRN 20)",
        "meta_object_id": "2000-025A",
        "meta_epoch": "2025-12-03T06:10:25.333824",
        "meta_mean_motion": 2.00568333,
        "meta_eccentricity": 0.00387923,
        "meta_inclination": 55.0396,
        "meta_ra_of_asc_node": 27.2216,
        "meta_arg_of_pericenter": 241.061,
        "meta_mean_anomaly": 209.8997,
        "meta_ephemeris_type": 0,
        "meta_classification_type": "U",
        "meta_norad_cat_id": 26360,
        "meta_element_set_no": 999,
        "meta_rev_at_epoch": 18734,
        "meta_bstar": 0,
        "meta_mean_motion_dot": -7e-07,
        "meta_mean_motion_ddot": 0,
        "tle_line1": "1 26360U 00025A   25337.25723766 -.00000070  00000+0  00000+0 0  9998",
        "tle_line2": "2 26360  55.0396  27.2216 0038792 241.0610 209.8997  2.00568333187347"
      },
      "geometry": {
        "type": "Point",
        "coordinates": [
          3.7858308548452038,
          -29.64411676519547
        ]
      }
    },
    {
      "type": "Feature",
      "properties": {
        "norad_id": 26407,
        "name": "GPS BIIR-5  (PRN 22)",
        "group": "gps-ops",
        "lat": 15.364240047091906,
        "lon": 31.8063988899382,
        "alt_km": 20437.856292096152,
        "timestamp": "2025-12-03T13:52:09.820277+00:00",
        "meta_object_name": "GPS BIIR-5  (PRN 22)",
        "meta_object_id": "2000-040A",
        "meta_epoch": "2025-12-02T20:35:05.714592",
        "meta_mean_motion": 2.00567701,
        "meta_eccentricity": 0.01265555,
        "meta_inclination": 54.8933,
        "meta_ra_of_asc_node": 222.9621,
        "meta_arg_of_pericenter": 301.6247,
        "meta_mean_anomaly": 60.4206,
        "meta_ephemeris_type": 0,
        "meta_classification_type": "U",
        "meta_norad_cat_id": 26407,
        "meta_element_set_no": 999,
        "meta_rev_at_epoch": 18601,
        "meta_bstar": 0,
        "meta_mean_motion_dot": 5.8e-07,
        "meta_mean_motion_ddot": 0,
        "tle_line1": "1 26407U 00040A   25336.85770503  .00000058  00000+0  00000+0 0  9998",
        "tle_line2": "2 26407  54.8933 222.9621 0126555 301.6247  60.4206  2.00567701186016"
      },
      "geometry": {
        "type": "Point",
        "coordinates": [
          31.8063988899382,
          15.364240047091906
        ]
      }
    },
    {
      "type": "Feature",
      "properties": {
        "norad_id": 27663,
        "name": "GPS BIIR-8  (PRN 16)",
        "group": "gps-ops",
        "lat": -47.238950846138586,
        "lon": 173.38282547674305,
        "alt_km": 20349.712723545326,
        "timestamp": "2025-12-03T13:52:09.820291+00:00",
        "meta_object_name": "GPS BIIR-8  (PRN 16)",
        "meta_object_id": "2003-005A",
        "meta_epoch": "2025-12-02T07:21:58.833216",
        "meta_mean_motion": 2.00571367,
        "meta_eccentricity": 0.014703,
        "meta_inclination": 54.9261,
        "meta_ra_of_asc_node": 222.7933,
        "meta_arg_of_pericenter": 51.6544,
        "meta_mean_anomaly": 48.4553,
        "meta_ephemeris_type": 0,
        "meta_classification_type": "U",
        "meta_norad_cat_id": 27663,
        "meta_element_set_no": 999,
        "meta_rev_at_epoch": 16736,
        "meta_bstar": 0,
        "meta_mean_motion_dot": 5.5e-07,
        "meta_mean_motion_ddot": 0,
        "tle_line1": "1 27663U 03005A   25336.30693094  .00000055  00000+0  00000+0 0  9993",
        "tle_line2": "2 27663  54.9261 222.7933 0147030  51.6544  48.4553  2.00571367167364"
      },
      "geometry": {
        "type": "Point",
        "coordinates": [
          173.38282547674305,
          -47.238950846138586
        ]
      }
    },
    {
      "type": "Feature",
      "properties": {
        "norad_id": 28190,
        "name": "GPS BIIR-11 (PRN 19)",
        "group": "gps-ops",
        "lat": 54.589954783631505,
        "lon": 23.61237127300111,
        "alt_km": 20082.873465923272,
        "timestamp": "2025-12-03T13:52:09.820305+00:00",
        "meta_object_name": "GPS BIIR-11 (PRN 19)",
        "meta_object_id": "2004-009A",
        "meta_epoch": "2025-11-26T05:14:39.537024",
        "meta_mean_motion": 2.00561394,
        "meta_eccentricity": 0.01080929,
        "meta_inclination": 55.0011,
        "meta_ra_of_asc_node": 283.885,
        "meta_arg_of_pericenter": 167.3745,
        "meta_mean_anomaly": 15.773,
        "meta_ephemeris_type": 0,
        "meta_classification_type": "U",
        "meta_norad_cat_id": 28190,
        "meta_element_set_no": 999,
        "meta_rev_at_epoch": 15887,
        "meta_bstar": 0,
        "meta_mean_motion_dot": -2.4e-07,
        "meta_mean_motion_ddot": 0,
        "tle_line1": "1 28190U 04009A   25330.21851316 -.00000024  00000+0  00000+0 0  9998",
        "tle_line2": "2 28190  55.0011 283.8850 0108092 167.3745  15.7730  2.00561394158873"
      },
      "geometry": {
        "type": "Point",
        "coordinates": [
          23.61237127300111,
          54.589954783631505
        ]
      }
    },
    {
      "type": "Feature",
      "properties": {
        "norad_id": 28474,
        "name": "GPS BIIR-13 (PRN 02)",
        "group": "gps-ops",
        "lat": 19.58307589816225,
        "lon": 138.4692759341291,
        "alt_km": 20580.850583356074,
        "timestamp": "2025-12-03T13:52:09.820318+00:00",
        "meta_object_name": "GPS BIIR-13 (PRN 02)",
        "meta_object_id": "2004-045A",
        "meta_epoch": "2025-12-02T14:51:16.748640",
        "meta_mean_motion": 2.00568864,
        "meta_eccentricity": 0.01705399,
        "meta_inclination": 55.2456,
        "meta_ra_of_asc_node": 332.8132,
        "meta_arg_of_pericenter": 308.8127,
        "meta_mean_anomaly": 235.5488,
        "meta_ephemeris_type": 0,
        "meta_classification_type": "U",
        "meta_norad_cat_id": 28474,
        "meta_element_set_no": 999,
        "meta_rev_at_epoch": 15448,
        "meta_bstar": 0,
        "meta_mean_motion_dot": -6.2e-07,
        "meta_mean_motion_ddot": 0,
        "tle_line1": "1 28474U 04045A   25336.61894385 -.00000062  00000+0  00000+0 0  9998",
        "tle_line2": "2 28474  55.2456 332.8132 0170539 308.8127 235.5488  2.00568864154486"
      },
      "geometry": {
        "type": "Point",
        "coordinates": [
          138.4692759341291,
          19.58307589816225
        ]
      }
    },
    {
      "type": "Feature",
      "properties": {
        "norad_id": 28874,
        "name": "GPS BIIRM-1 (PRN 17)",
        "group": "gps-ops",
        "lat": 47.76252435945182,
        "lon": 50.72531038869552,
        "alt_km": 20530.880107357938,
        "timestamp": "2025-12-03T13:52:09.820330+00:00",
        "meta_object_name": "GPS BIIRM-1 (PRN 17)",
        "meta_object_id": "2005-038A",
        "meta_epoch": "2025-12-02T16:12:27.400896",
        "meta_mean_motion": 2.00548806,
        "meta_eccentricity": 0.01328204,
        "meta_inclination": 55.0411,
        "meta_ra_of_asc_node": 281.1063,
        "meta_arg_of_pericenter": 293.4087,
        "meta_mean_anomaly": 250.3584,
        "meta_ephemeris_type": 0,
        "meta_classification_type": "U",
        "meta_norad_cat_id": 28874,
        "meta_element_set_no": 999,
        "meta_rev_at_epoch": 14789,
        "meta_bstar": 0,
        "meta_mean_motion_dot": -4.3e-07,
        "meta_mean_motion_ddot": 0,
        "tle_line1": "1 28874U 05038A   25336.67531714 -.00000043  00000+0  00000+0 0  9994",
        "tle_line2": "2 28874  55.0411 281.1063 0132820 293.4087 250.3584  2.00548806147896"
      },
      "geometry": {
        "type": "Point",
        "coordinates": [
          50.72531038869552,
          47.76252435945182
        ]
      }
    }
  ]
}